STARLINK-31170          
1 58801U 24012Q   26068.35181041 -.00003345  00000+0 -11202-3 0  9991
2 58801  43.0034 167.2088 0001835 273.3842  86.6800 15.27596261121181
FLOCK 4G-3              
1 62639U 25009AG  26068.80174065  .00011494  00000+0  43389-3 0  9993
2 62639  97.4062 151.4068 0001320 293.2042  66.9058 15.27179310 63727
