[{"OBJECT_NAME":"STARLINK-31170","OBJECT_ID":"2024-012Q","EPOCH":"2026-03-09T08:26:36.419424","MEAN_MOTION":15.27596261,"ECCENTRICITY":0.00018355,"INCLINATION":43.0034,"RA_OF_ASC_NODE":167.2088,"ARG_OF_PERICENTER":273.3842,"MEAN_ANOMALY":86.68,"EPHEMERIS_TYPE":0,"CLASSIFICATION_TYPE":"U","NORAD_CAT_ID":58801,"ELEMENT_SET_NO":999,"REV_AT_EPOCH":12118,"BSTAR":-0.0001120246,"MEAN_MOTION_DOT":-3.345e-5,"MEAN_MOTION_DDOT":0},{"OBJECT_NAME":"FLOCK 4G-3","OBJECT_ID":"2025-009AG","EPOCH":"2026-03-09T19:14:30.392160","MEAN_MOTION":15.2717931,"ECCENTRICITY":0.00013196,"INCLINATION":97.4062,"RA_OF_ASC_NODE":151.4068,"ARG_OF_PERICENTER":293.2042,"MEAN_ANOMALY":66.9058,"EPHEMERIS_TYPE":0,"CLASSIFICATION_TYPE":"U","NORAD_CAT_ID":62639,"ELEMENT_SET_NO":999,"REV_AT_EPOCH":6372,"BSTAR":0.0004338875,"MEAN_MOTION_DOT":0.00011494,"MEAN_MOTION_DDOT":0}]
